STARLINK-36610          
1 67637U 26020W   26055.86544780  .00137340  00000+0  83123-3 0  9996
2 67637  42.9983 219.9755 0001476 274.5140  85.5561 15.76408479  4066
STARLINK-36599          
1 67638U 26020X   26055.91668981  .00131702  00000+0  80129-3 0  9992
2 67638  42.9986 219.0754 0001751 306.4779 221.1093 15.76308409  5330
STARLINK-36595          
1 67639U 26020Y   26055.45683167  .00485798  00000+0  27941-2 0  9994
2 67639  42.9983 222.0536 0001972 260.1427  99.9220 15.76563977  4000
STARLINK-36570          
1 67640U 26020Z   26055.73215924  .00359417  00000+0  21079-2 0  9993
2 67640  42.9981 220.6908 0000802 244.5539 115.5248 15.76471909  4040
STARLINK-36514          
1 67641U 26020AA  26055.91668981  .00145034  00000+0  88115-3 0  9992
2 67641  42.9985 219.0434 0001582 279.6530 260.3813 15.76297107  5333
STARLINK-36556          
1 67642U 26020AB  26055.91129264  .00299883  00000+0  17708-2 0  9990
2 67642  42.9995 219.4463 0001808 288.3685  71.6988 15.76485354  4079
STARLINK-36533          
1 67643U 26020AC  26055.79771318  .00365563  00000+0  21423-2 0  9998
2 67643  42.9977 220.3230 0002012 298.1678  61.8988 15.76473462  4058
STARLINK-36623          
1 67644U 26020AD  26055.85450136  .00182840  00000+0  10993-2 0  9993
2 67644  42.9981 219.8849 0000966 296.4268  63.6502 15.76416030  4066
STARLINK-36619          
1 67645U 26020AE  26055.72558988  .00295983  00000+0  17503-2 0  9991
2 67645  42.9976 220.6360 0000685 238.8636 121.2167 15.76463318  4043
ALSAT-3B                
1 67646U 26021A   26055.97195694  .00005865  00000+0  24649-3 0  9999
2 67646  97.4690 130.3646 0012890 173.9334 186.2062 15.23736874  3788
CZ-2C R/B               
1 67647U 26021B   26055.90964962  .00011124  00000+0  33516-3 0  9993
2 67647  97.6529 131.1239 0152639  55.7464 305.8122 15.23718208  3750
STARLINK-36719          
1 67648U 26022A   26055.76657801  .00158552  00000+0  10414-2 0  9998
2 67648  97.2850  89.0931 0000622 102.3579 257.7756 15.75254045  3517
