CCSDS_OMM_VERS = 2.0
CREATION_DATE  = 
ORIGINATOR     = 

OBJECT_NAME    = STARLINK-36610
OBJECT_ID      = 2026-020W
CENTER_NAME    = EARTH
REF_FRAME      = TEME
TIME_SYSTEM    = UTC
MEAN_ELEMENT_THEORY = SGP/SGP4

EPOCH          = 2026-02-24T20:46:14.689920
MEAN_MOTION    = 15.76408479
ECCENTRICITY   = .00014767
INCLINATION    = 42.9983
RA_OF_ASC_NODE = 219.9755
ARG_OF_PERICENTER = 274.5140
MEAN_ANOMALY   = 85.5561

EPHEMERIS_TYPE = 0
CLASSIFICATION_TYPE = U
NORAD_CAT_ID   = 67637
ELEMENT_SET_NO = 999
REV_AT_EPOCH   = 406
BSTAR          = .83123272E-3
MEAN_MOTION_DOT = .13734E-2
MEAN_MOTION_DDOT = 0

CCSDS_OMM_VERS = 2.0
CREATION_DATE  = 
ORIGINATOR     = 

OBJECT_NAME    = STARLINK-36599
OBJECT_ID      = 2026-020X
CENTER_NAME    = EARTH
REF_FRAME      = TEME
TIME_SYSTEM    = UTC
MEAN_ELEMENT_THEORY = SGP/SGP4

EPOCH          = 2026-02-24T22:00:01.999584
MEAN_MOTION    = 15.76308409
ECCENTRICITY   = .00017517
INCLINATION    = 42.9986
RA_OF_ASC_NODE = 219.0754
ARG_OF_PERICENTER = 306.4779
MEAN_ANOMALY   = 221.1093

EPHEMERIS_TYPE = 0
CLASSIFICATION_TYPE = U
NORAD_CAT_ID   = 67638
ELEMENT_SET_NO = 999
REV_AT_EPOCH   = 533
BSTAR          = .80128628E-3
MEAN_MOTION_DOT = .131702E-2
MEAN_MOTION_DDOT = 0

CCSDS_OMM_VERS = 2.0
CREATION_DATE  = 
ORIGINATOR     = 

OBJECT_NAME    = STARLINK-36595
OBJECT_ID      = 2026-020Y
CENTER_NAME    = EARTH
REF_FRAME      = TEME
TIME_SYSTEM    = UTC
MEAN_ELEMENT_THEORY = SGP/SGP4

EPOCH          = 2026-02-24T10:57:50.256288
MEAN_MOTION    = 15.76563977
ECCENTRICITY   = .00019724
INCLINATION    = 42.9983
RA_OF_ASC_NODE = 222.0536
ARG_OF_PERICENTER = 260.1427
MEAN_ANOMALY   = 99.9220

EPHEMERIS_TYPE = 0
CLASSIFICATION_TYPE = U
NORAD_CAT_ID   = 67639
ELEMENT_SET_NO = 999
REV_AT_EPOCH   = 400
BSTAR          = .27941125E-2
MEAN_MOTION_DOT = .485798E-2
MEAN_MOTION_DDOT = 0

CCSDS_OMM_VERS = 2.0
CREATION_DATE  = 
ORIGINATOR     = 

OBJECT_NAME    = STARLINK-36570
OBJECT_ID      = 2026-020Z
CENTER_NAME    = EARTH
REF_FRAME      = TEME
TIME_SYSTEM    = UTC
MEAN_ELEMENT_THEORY = SGP/SGP4

EPOCH          = 2026-02-24T17:34:18.558336
MEAN_MOTION    = 15.76471909
ECCENTRICITY   = .00008025
INCLINATION    = 42.9981
RA_OF_ASC_NODE = 220.6908
ARG_OF_PERICENTER = 244.5539
MEAN_ANOMALY   = 115.5248

EPHEMERIS_TYPE = 0
CLASSIFICATION_TYPE = U
NORAD_CAT_ID   = 67640
ELEMENT_SET_NO = 999
REV_AT_EPOCH   = 404
BSTAR          = .21079116E-2
MEAN_MOTION_DOT = .359417E-2
MEAN_MOTION_DDOT = 0

CCSDS_OMM_VERS = 2.0
CREATION_DATE  = 
ORIGINATOR     = 

OBJECT_NAME    = STARLINK-36514
OBJECT_ID      = 2026-020AA
CENTER_NAME    = EARTH
REF_FRAME      = TEME
TIME_SYSTEM    = UTC
MEAN_ELEMENT_THEORY = SGP/SGP4

EPOCH          = 2026-02-24T22:00:01.999584
MEAN_MOTION    = 15.76297107
ECCENTRICITY   = .00015824
INCLINATION    = 42.9985
RA_OF_ASC_NODE = 219.0434
ARG_OF_PERICENTER = 279.6530
MEAN_ANOMALY   = 260.3813

EPHEMERIS_TYPE = 0
CLASSIFICATION_TYPE = U
NORAD_CAT_ID   = 67641
ELEMENT_SET_NO = 999
REV_AT_EPOCH   = 533
BSTAR          = .88115248E-3
MEAN_MOTION_DOT = .145034E-2
MEAN_MOTION_DDOT = 0

CCSDS_OMM_VERS = 2.0
CREATION_DATE  = 
ORIGINATOR     = 

OBJECT_NAME    = STARLINK-36556
OBJECT_ID      = 2026-020AB
CENTER_NAME    = EARTH
REF_FRAME      = TEME
TIME_SYSTEM    = UTC
MEAN_ELEMENT_THEORY = SGP/SGP4

EPOCH          = 2026-02-24T21:52:15.684096
MEAN_MOTION    = 15.76485354
ECCENTRICITY   = .00018081
INCLINATION    = 42.9995
RA_OF_ASC_NODE = 219.4463
ARG_OF_PERICENTER = 288.3685
MEAN_ANOMALY   = 71.6988

EPHEMERIS_TYPE = 0
CLASSIFICATION_TYPE = U
NORAD_CAT_ID   = 67642
ELEMENT_SET_NO = 999
REV_AT_EPOCH   = 407
BSTAR          = .1770811E-2
MEAN_MOTION_DOT = .299883E-2
MEAN_MOTION_DDOT = 0

CCSDS_OMM_VERS = 2.0
CREATION_DATE  = 
ORIGINATOR     = 

OBJECT_NAME    = STARLINK-36533
OBJECT_ID      = 2026-020AC
CENTER_NAME    = EARTH
REF_FRAME      = TEME
TIME_SYSTEM    = UTC
MEAN_ELEMENT_THEORY = SGP/SGP4

EPOCH          = 2026-02-24T19:08:42.418752
MEAN_MOTION    = 15.76473462
ECCENTRICITY   = .00020124
INCLINATION    = 42.9977
RA_OF_ASC_NODE = 220.3230
ARG_OF_PERICENTER = 298.1678
MEAN_ANOMALY   = 61.8988

EPHEMERIS_TYPE = 0
CLASSIFICATION_TYPE = U
NORAD_CAT_ID   = 67643
ELEMENT_SET_NO = 999
REV_AT_EPOCH   = 405
BSTAR          = .21422856E-2
MEAN_MOTION_DOT = .365563E-2
MEAN_MOTION_DDOT = 0

CCSDS_OMM_VERS = 2.0
CREATION_DATE  = 
ORIGINATOR     = 

OBJECT_NAME    = STARLINK-36623
OBJECT_ID      = 2026-020AD
CENTER_NAME    = EARTH
REF_FRAME      = TEME
TIME_SYSTEM    = UTC
MEAN_ELEMENT_THEORY = SGP/SGP4

EPOCH          = 2026-02-24T20:30:28.917504
MEAN_MOTION    = 15.76416030
ECCENTRICITY   = .00009669
INCLINATION    = 42.9981
RA_OF_ASC_NODE = 219.8849
ARG_OF_PERICENTER = 296.4268
MEAN_ANOMALY   = 63.6502

EPHEMERIS_TYPE = 0
CLASSIFICATION_TYPE = U
NORAD_CAT_ID   = 67644
ELEMENT_SET_NO = 999
REV_AT_EPOCH   = 406
BSTAR          = .10993259E-2
MEAN_MOTION_DOT = .18284E-2
MEAN_MOTION_DDOT = 0

CCSDS_OMM_VERS = 2.0
CREATION_DATE  = 
ORIGINATOR     = 

OBJECT_NAME    = STARLINK-36619
OBJECT_ID      = 2026-020AE
CENTER_NAME    = EARTH
REF_FRAME      = TEME
TIME_SYSTEM    = UTC
MEAN_ELEMENT_THEORY = SGP/SGP4

EPOCH          = 2026-02-24T17:24:50.965632
MEAN_MOTION    = 15.76463318
ECCENTRICITY   = .00006858
INCLINATION    = 42.9976
RA_OF_ASC_NODE = 220.6360
ARG_OF_PERICENTER = 238.8636
MEAN_ANOMALY   = 121.2167

EPHEMERIS_TYPE = 0
CLASSIFICATION_TYPE = U
NORAD_CAT_ID   = 67645
ELEMENT_SET_NO = 999
REV_AT_EPOCH   = 404
BSTAR          = .17502764E-2
MEAN_MOTION_DOT = .295983E-2
MEAN_MOTION_DDOT = 0

CCSDS_OMM_VERS = 2.0
CREATION_DATE  = 
ORIGINATOR     = 

OBJECT_NAME    = ALSAT-3B
OBJECT_ID      = 2026-021A
CENTER_NAME    = EARTH
REF_FRAME      = TEME
TIME_SYSTEM    = UTC
MEAN_ELEMENT_THEORY = SGP/SGP4

EPOCH          = 2026-02-24T23:19:37.079616
MEAN_MOTION    = 15.23736874
ECCENTRICITY   = .00128909
INCLINATION    = 97.4690
RA_OF_ASC_NODE = 130.3646
ARG_OF_PERICENTER = 173.9334
MEAN_ANOMALY   = 186.2062

EPHEMERIS_TYPE = 0
CLASSIFICATION_TYPE = U
NORAD_CAT_ID   = 67646
ELEMENT_SET_NO = 999
REV_AT_EPOCH   = 378
BSTAR          = .24649432E-3
MEAN_MOTION_DOT = .5865E-4
MEAN_MOTION_DDOT = 0

CCSDS_OMM_VERS = 2.0
CREATION_DATE  = 
ORIGINATOR     = 

OBJECT_NAME    = CZ-2C R/B
OBJECT_ID      = 2026-021B
CENTER_NAME    = EARTH
REF_FRAME      = TEME
TIME_SYSTEM    = UTC
MEAN_ELEMENT_THEORY = SGP/SGP4

EPOCH          = 2026-02-24T21:49:53.727168
MEAN_MOTION    = 15.23718208
ECCENTRICITY   = .01526399
INCLINATION    = 97.6529
RA_OF_ASC_NODE = 131.1239
ARG_OF_PERICENTER = 55.7464
MEAN_ANOMALY   = 305.8122

EPHEMERIS_TYPE = 0
CLASSIFICATION_TYPE = U
NORAD_CAT_ID   = 67647
ELEMENT_SET_NO = 999
REV_AT_EPOCH   = 375
BSTAR          = .33515702E-3
MEAN_MOTION_DOT = .11124E-3
MEAN_MOTION_DDOT = 0

CCSDS_OMM_VERS = 2.0
CREATION_DATE  = 
ORIGINATOR     = 

OBJECT_NAME    = STARLINK-36719
OBJECT_ID      = 2026-022A
CENTER_NAME    = EARTH
REF_FRAME      = TEME
TIME_SYSTEM    = UTC
MEAN_ELEMENT_THEORY = SGP/SGP4

EPOCH          = 2026-02-24T18:23:52.340064
MEAN_MOTION    = 15.75254045
ECCENTRICITY   = .0000622
INCLINATION    = 97.2850
RA_OF_ASC_NODE = 89.0931
ARG_OF_PERICENTER = 102.3579
MEAN_ANOMALY   = 257.7756

EPHEMERIS_TYPE = 0
CLASSIFICATION_TYPE = U
NORAD_CAT_ID   = 67648
ELEMENT_SET_NO = 999
REV_AT_EPOCH   = 351
BSTAR          = .10413712E-2
MEAN_MOTION_DOT = .158552E-2
MEAN_MOTION_DDOT = 0

